start=new Date('2022-10-07T00:00:00.000Z').valueOf();
sats=[{"SITE":"AFETR","COUNTRY_CODE":"US","EPOCH":"2022-10-06T12:00:41.002848","GP_ID":"214334162","EPHEMERIS_TYPE":"0","FILE":"3594504","CLASSIFICATION_TYPE":"U","PERIOD":"95.438","MEAN_ANOMALY":"323.2859","PERIAPSIS":"538.406","ECCENTRICITY":"0.00019420","OBJECT_NAME":"STARLINK-3229","BSTAR":"0.00039892000000","OBJECT_TYPE":"PAYLOAD","SEMIMAJOR_AXIS":"6917.885","TLE_LINE1":"1 49751U 21115AD  22279.50047457  .00006066  00000-0  39892-3 0  9992","APOAPSIS":"541.093","CENTER_NAME":"EARTH","ELEMENT_SET_NO":"999","LAUNCH_DATE":"2021-12-02","DECAY_DATE":null,"ARG_OF_PERICENTER":"36.8266","RA_OF_ASC_NODE":"1.4508","INCLINATION":"53.2181","MEAN_MOTION_DDOT":"0.0000000000000","MEAN_ELEMENT_THEORY":"SGP4","NORAD_CAT_ID":"49751","TLE_LINE2":"2 49751  53.2181   1.4508 0001942  36.8266 323.2859 15.08838552 47911","OBJECT_ID":"2021-115AD","REV_AT_EPOCH":"4791","REF_FRAME":"TEME","MEAN_MOTION_DOT":"0.00006066","TIME_SYSTEM":"UTC","RCS_SIZE":"LARGE","MEAN_MOTION":"15.08838552"},{"FILE":"3594506","CLASSIFICATION_TYPE":"U","EPOCH":"2022-10-06T22:11:25.214496","COUNTRY_CODE":"US","SITE":"AFETR","EPHEMERIS_TYPE":"0","GP_ID":"214334188","OBJECT_NAME":"STARLINK-3209","PERIAPSIS":"538.412","ECCENTRICITY":"0.00018860","MEAN_ANOMALY":"309.6844","TLE_LINE1":"1 49752U 21115AE  22279.92459739  .00010425  00000-0  67195-3 0  9990","SEMIMAJOR_AXIS":"6917.852","BSTAR":"0.00067195000000","OBJECT_TYPE":"PAYLOAD","PERIOD":"95.437","LAUNCH_DATE":"2021-12-02","ARG_OF_PERICENTER":"50.4314","DECAY_DATE":null,"CENTER_NAME":"EARTH","ELEMENT_SET_NO":"999","APOAPSIS":"541.022","MEAN_MOTION_DOT":"0.00010425","REF_FRAME":"TEME","REV_AT_EPOCH":"4811","MEAN_MOTION":"15.08849256","TIME_SYSTEM":"UTC","RCS_SIZE":"LARGE","TLE_LINE2":"2 49752  53.2171 349.5485 0001886  50.4314 309.6844 15.08849256 48112","NORAD_CAT_ID":"49752","MEAN_MOTION_DDOT":"0.0000000000000","MEAN_ELEMENT_THEORY":"SGP4","RA_OF_ASC_NODE":"349.5485","INCLINATION":"53.2171","OBJECT_ID":"2021-115AE"},{"TIME_SYSTEM":"UTC","RCS_SIZE":"LARGE","MEAN_MOTION":"15.08853708","REF_FRAME":"TEME","MEAN_MOTION_DOT":"0.00012618","REV_AT_EPOCH":"4683","OBJECT_ID":"2021-115AF","TLE_LINE2":"2 49753  53.2166   0.5322 0001670  52.5715 307.5429 15.08853708 46830","NORAD_CAT_ID":"49753","INCLINATION":"53.2166","RA_OF_ASC_NODE":"0.5322","MEAN_ELEMENT_THEORY":"SGP4","MEAN_MOTION_DDOT":"0.0000000000000","DECAY_DATE":null,"ARG_OF_PERICENTER":"52.5715","LAUNCH_DATE":"2021-12-02","CENTER_NAME":"EARTH","ELEMENT_SET_NO":"999","APOAPSIS":"540.859","TLE_LINE1":"1 49753U 21115AF  22279.70656003  .00012618  00000-0  80916-3 0  9992","BSTAR":"0.00080916000000","OBJECT_TYPE":"PAYLOAD","SEMIMAJOR_AXIS":"6917.838","MEAN_ANOMALY":"307.5429","PERIAPSIS":"538.548","ECCENTRICITY":"0.00016700","OBJECT_NAME":"STARLINK-3200","PERIOD":"95.437","CLASSIFICATION_TYPE":"U","FILE":"3594620","EPHEMERIS_TYPE":"0","GP_ID":"214359369","EPOCH":"2022-10-06T16:57:26.786592","SITE":"AFETR","COUNTRY_CODE":"US"},{"APOAPSIS":"541.901","ELEMENT_SET_NO":"999","CENTER_NAME":"EARTH","DECAY_DATE":null,"ARG_OF_PERICENTER":"27.9377","LAUNCH_DATE":"2021-12-02","OBJECT_ID":"2021-115AG","RA_OF_ASC_NODE":"349.5634","INCLINATION":"53.2188","MEAN_MOTION_DDOT":"0.0000000000000","MEAN_ELEMENT_THEORY":"SGP4","TLE_LINE2":"2 49754  53.2188 349.5634 0003126  27.9377 332.1783 15.08842306 48117","NORAD_CAT_ID":"49754","RCS_SIZE":"LARGE","TIME_SYSTEM":"UTC","MEAN_MOTION":"15.08842306","REV_AT_EPOCH":"4811","REF_FRAME":"TEME","MEAN_MOTION_DOT":"0.00001491","GP_ID":"214334451","EPHEMERIS_TYPE":"0","SITE":"AFETR","COUNTRY_CODE":"US","EPOCH":"2022-10-06T22:02:11.786208","CLASSIFICATION_TYPE":"U","FILE":"3594508","PERIOD":"95.437","BSTAR":"0.00011177000000","OBJECT_TYPE":"PAYLOAD","SEMIMAJOR_AXIS":"6917.873","TLE_LINE1":"1 49754U 21115AG  22279.91819197  .00001491  00000-0  11177-3 0  9991","PERIAPSIS":"537.576","ECCENTRICITY":"0.00031260","MEAN_ANOMALY":"332.1783","OBJECT_NAME":"STARLINK-3193"},{"PERIOD":"95.437","TLE_LINE1":"1 49755U 21115AH  22279.51519203  .00006929  00000-0  45293-3 0  9990","BSTAR":"0.00045293000000","OBJECT_TYPE":"PAYLOAD","SEMIMAJOR_AXIS":"6917.863","PERIAPSIS":"538.516","MEAN_ANOMALY":"307.4226","ECCENTRICITY":"0.00017520","OBJECT_NAME":"STARLINK-3210","EPHEMERIS_TYPE":"0","GP_ID":"214315040","EPOCH":"2022-10-06T12:21:52.591392","SITE":"AFETR","COUNTRY_CODE":"US","CLASSIFICATION_TYPE":"U","FILE":"3593749","OBJECT_ID":"2021-115AH","NORAD_CAT_ID":"49755","TLE_LINE2":"2 49755  53.2180   1.3868 0001752  52.6925 307.4226 15.08845663 46809","INCLINATION":"53.2180","RA_OF_ASC_NODE":"1.3868","MEAN_MOTION_DDOT":"0.0000000000000","MEAN_ELEMENT_THEORY":"SGP4","RCS_SIZE":"LARGE","TIME_SYSTEM":"UTC","MEAN_MOTION":"15.08845663","REF_FRAME":"TEME","MEAN_MOTION_DOT":"0.00006929","REV_AT_EPOCH":"4680","CENTER_NAME":"EARTH","ELEMENT_SET_NO":"999","APOAPSIS":"540.940","DECAY_DATE":null,"ARG_OF_PERICENTER":"52.6925","LAUNCH_DATE":"2021-12-02"},{"NORAD_CAT_ID":"49756","TLE_LINE2":"2 49756  53.2177 350.6704 0001740  48.1919 311.9221 15.08851665 46966","MEAN_ELEMENT_THEORY":"SGP4","MEAN_MOTION_DDOT":"0.0000000000000","INCLINATION":"53.2177","RA_OF_ASC_NODE":"350.6704","OBJECT_ID":"2021-115AJ","MEAN_MOTION_DOT":"-0.00000188","REF_FRAME":"TEME","REV_AT_EPOCH":"4696","MEAN_MOTION":"15.08851665","TIME_SYSTEM":"UTC","RCS_SIZE":"LARGE","ELEMENT_SET_NO":"999","CENTER_NAME":"EARTH","APOAPSIS":"540.913","LAUNCH_DATE":"2021-12-02","ARG_OF_PERICENTER":"48.1919","DECAY_DATE":null,"PERIOD":"95.437","OBJECT_NAME":"STARLINK-3207","ECCENTRICITY":"0.00017400","PERIAPSIS":"538.506","MEAN_ANOMALY":"311.9221","TLE_LINE1":"1 49756U 21115AJ  22279.67066757 -.00000188  00000-0  62875-5 0  9998","SEMIMAJOR_AXIS":"6917.845","OBJECT_TYPE":"PAYLOAD","BSTAR":"0.00000628750000","EPOCH":"2022-10-06T16:05:45.678048","COUNTRY_CODE":"US","SITE":"AFETR","EPHEMERIS_TYPE":"0","GP_ID":"214360598","FILE":"3594620","CLASSIFICATION_TYPE":"U"},{"REF_FRAME":"TEME","MEAN_MOTION_DOT":"0.00058723","REV_AT_EPOCH":"4811","RCS_SIZE":"LARGE","TIME_SYSTEM":"UTC","MEAN_MOTION":"15.08925851","TLE_LINE2":"2 49757  53.2164 349.5166 0001828  36.2863 323.8253 15.08925851 48110","NORAD_CAT_ID":"49757","INCLINATION":"53.2164","RA_OF_ASC_NODE":"349.5166","MEAN_MOTION_DDOT":"0.0000000000000","MEAN_ELEMENT_THEORY":"SGP4","OBJECT_ID":"2021-115AK","LAUNCH_DATE":"2021-12-02","DECAY_DATE":null,"ARG_OF_PERICENTER":"36.2863","CENTER_NAME":"EARTH","ELEMENT_SET_NO":"999","APOAPSIS":"540.748","PERIAPSIS":"538.218","MEAN_ANOMALY":"323.8253","ECCENTRICITY":"0.00018280","OBJECT_NAME":"STARLINK-3197","TLE_LINE1":"1 49757U 21115AK  22279.92825854  .00058723  00000-0  36686-2 0  9993","BSTAR":"0.00366860000000","OBJECT_TYPE":"PAYLOAD","SEMIMAJOR_AXIS":"6917.618","PERIOD":"95.432","FILE":"3594506","CLASSIFICATION_TYPE":"U","EPOCH":"2022-10-06T22:16:41.537856","SITE":"AFETR","COUNTRY_CODE":"US","EPHEMERIS_TYPE":"0","GP_ID":"214334191"},{"APOAPSIS":"541.355","CENTER_NAME":"EARTH","ELEMENT_SET_NO":"999","DECAY_DATE":null,"ARG_OF_PERICENTER":"33.3086","LAUNCH_DATE":"2021-12-02","OBJECT_ID":"2021-115AL","RA_OF_ASC_NODE":"351.5403","INCLINATION":"53.2176","MEAN_MOTION_DDOT":"0.0000000000000","MEAN_ELEMENT_THEORY":"SGP4","TLE_LINE2":"2 49758  53.2176 351.5403 0002301  33.3086 326.8051 15.08834063 48048","NORAD_CAT_ID":"49758","TIME_SYSTEM":"UTC","RCS_SIZE":"LARGE","MEAN_MOTION":"15.08834063","REV_AT_EPOCH":"4804","REF_FRAME":"TEME","MEAN_MOTION_DOT":"0.00006454","GP_ID":"214334413","EPHEMERIS_TYPE":"0","SITE":"AFETR","COUNTRY_CODE":"US","EPOCH":"2022-10-06T11:30:13.702464","CLASSIFICATION_TYPE":"U","FILE":"3594506","PERIOD":"95.438","BSTAR":"0.00042331000000","OBJECT_TYPE":"PAYLOAD","SEMIMAJOR_AXIS":"6917.899","TLE_LINE1":"1 49758U 21115AL  22279.47932526  .00006454  00000-0  42331-3 0  9998","PERIAPSIS":"538.172","MEAN_ANOMALY":"326.8051","ECCENTRICITY":"0.00023010","OBJECT_NAME":"STARLINK-3194"},{"TLE_LINE2":"2 49759  53.2170 351.0034 0001898  45.1753 314.9394 15.08850439 46951","NORAD_CAT_ID":"49759","MEAN_ELEMENT_THEORY":"SGP4","MEAN_MOTION_DDOT":"0.0000000000000","INCLINATION":"53.2170","RA_OF_ASC_NODE":"351.0034","OBJECT_ID":"2021-115AM","MEAN_MOTION_DOT":"0.00001656","REF_FRAME":"TEME","REV_AT_EPOCH":"4695","MEAN_MOTION":"15.08850439","TIME_SYSTEM":"UTC","RCS_SIZE":"LARGE","ELEMENT_SET_NO":"999","CENTER_NAME":"EARTH","APOAPSIS":"541.026","LAUNCH_DATE":"2021-12-02","ARG_OF_PERICENTER":"45.1753","DECAY_DATE":null,"PERIOD":"95.437","OBJECT_NAME":"STARLINK-3204","PERIAPSIS":"538.400","MEAN_ANOMALY":"314.9394","ECCENTRICITY":"0.00018980","TLE_LINE1":"1 49759U 21115AM  22279.60075040  .00001656  00000-0  12210-3 0  9995","SEMIMAJOR_AXIS":"6917.848","OBJECT_TYPE":"PAYLOAD","BSTAR":"0.00012210000000","EPOCH":"2022-10-06T14:25:04.834560","COUNTRY_CODE":"US","SITE":"AFETR","EPHEMERIS_TYPE":"0","GP_ID":"214360371","FILE":"3594620","CLASSIFICATION_TYPE":"U"},{"CLASSIFICATION_TYPE":"U","FILE":"3594506","GP_ID":"214334418","EPHEMERIS_TYPE":"0","COUNTRY_CODE":"US","SITE":"AFETR","EPOCH":"2022-10-06T11:40:46.315488","SEMIMAJOR_AXIS":"6917.927","BSTAR":"0.00026095000000","OBJECT_TYPE":"PAYLOAD","TLE_LINE1":"1 49760U 21115AN  22279.48664717  .00003866  00000-0  26095-3 0  9999","OBJECT_NAME":"STARLINK-3199","ECCENTRICITY":"0.00019230","PERIAPSIS":"538.461","MEAN_ANOMALY":"319.0365","PERIOD":"95.439","ARG_OF_PERICENTER":"41.0772","DECAY_DATE":null,"LAUNCH_DATE":"2021-12-02","APOAPSIS":"541.122","CENTER_NAME":"EARTH","ELEMENT_SET_NO":"999","MEAN_MOTION":"15.08824852","RCS_SIZE":"LARGE","TIME_SYSTEM":"UTC","REV_AT_EPOCH":"4805","MEAN_MOTION_DOT":"0.00003866","REF_FRAME":"TEME","OBJECT_ID":"2021-115AN","MEAN_MOTION_DDOT":"0.0000000000000","MEAN_ELEMENT_THEORY":"SGP4","RA_OF_ASC_NODE":"351.5139","INCLINATION":"53.2171","TLE_LINE2":"2 49760  53.2171 351.5139 0001923  41.0772 319.0365 15.08824852 48057","NORAD_CAT_ID":"49760"}];
